IRIDIUM 921 [-]         
1 24873U 97034E   24051.81701252  .00027522  00000+0  88488-3 0  9991
2 24873  86.3886 345.8601 0004708  31.5783 328.5748 15.32117308457451
IRIDIUM 26 [-]          
1 24903U 97043A   24051.79991648  .00000630  00000+0  20932-3 0  9993
2 24903  86.3977 313.0409 0001924  86.1727 273.9690 14.36216256387951
IRIDIUM 22 [-]          
1 24907U 97043E   24051.76504340  .00000605  00000+0  20522-3 0  9990
2 24907  86.3986 316.1989 0002154  84.0532 276.0910 14.35112856387565
DUMMY MASS 1 [-]        
1 24925U 97048A   24051.89974956  .00000835  00000+0  92239-4 0  9993
2 24925  86.3390 358.1659 0009001  64.2331 295.9821 14.86059580433483
DUMMY MASS 2 [-]        
1 24926U 97048B   24051.91735613  .00000827  00000+0  91878-4 0  9991
2 24926  86.3390 359.6790 0009973  71.9281 288.3029 14.85818917433272
IRIDIUM 29 [-]          
1 24944U 97051A   24051.87471786  .00000697  00000+0  23526-3 0  9997
2 24944  86.4009 346.0800 0002359  80.7025 279.4439 14.35567677384053
IRIDIUM 33 [-]          
1 24946U 97051C   24051.86296827  .00000489  00000+0  16751-3 0  9990
2 24946  86.3924 345.3463 0006848 197.7284 162.3674 14.34266649383593
IRIDIUM 28 [-]          
1 24948U 97051E   24051.88650187  .00000709  00000+0  23511-3 0  9994
2 24948  86.4015 343.8692 0001865  93.6486 266.4925 14.36516025384589
